{"spkid": "50893751", "covariance": {"labels": ["e", "q", "tp", "node", "peri", "i"], "data": [["1.033797331711812E-15", "-2.078242724996109E-15", "-2.965203702260312E-14", "2.776375415003974E-15", "8.895627285969127E-14", "7.745603054290412E-15"], ["-2.078242724996109E-15", "4.185291299877428E-15", "7.089319400320577E-14", "-1.023796104471451E-14", "-1.767729855465146E-13", "-5.615018202176802E-15"], ["-2.965203702260312E-14", "7.089319400320577E-14", "2.317373023218137E-10", "-4.2117512234789E-11", "1.131198512706761E-10", "1.055888082286145E-10"], ["2.776375415003974E-15", "-1.023796104471451E-14", "-4.2117512234789E-11", "9.397972447650622E-11", "-8.873587586639147E-11", "-1.060378218107139E-10"], ["8.895627285969127E-14", "-1.767729855465146E-13", "1.131198512706761E-10", "-8.873587586639147E-11", "1.424436309527323E-10", "1.164228298566322E-10"], ["7.745603054290412E-15", "-5.615018202176802E-15", "1.055888082286145E-10", "-1.060378218107139E-10", "1.164228298566322E-10", "3.286153733395414E-10"]], "elements": [{"label": "e", "units": null, "title": "eccentricity", "value": ".626268214430567", "sigma": 3.21527188852173e-08, "name": "e"}, {"label": "q", "sigma": 6.46938273707579e-08, "name": "q", "units": "au", "title": "perihelion distance", "value": ".729568919032466"}, {"value": "2458891.124695925966", "title": "time of perihelion passage", "units": "TDB", "sigma": 1.52229202954562e-05, "name": "tp", "label": "tp"}, {"label": "node", "title": "longitude of the ascending node", "value": "78.55815832723096", "units": "deg", "sigma": 9.69431402815621e-06, "name": "om"}, {"sigma": 1.19349751132012e-05, "name": "w", "title": "argument of perihelion", "value": "74.3104423676087", "units": "deg", "label": "peri"}, {"label": "i", "name": "i", "sigma": 1.81277514694885e-05, "units": "deg", "value": "29.49183732715264", "title": "inclination"}], "epoch": "2458484.5"}, "elements": [{"label": "e", "name": "e", "sigma": "3.2245E-8", "title": "eccentricity", "value": ".6272615468336891", "units": null}, {"units": "au", "value": "1.952131464843681", "title": "semi-major axis", "name": "a", "sigma": "9.0093E-9", "label": "a"}, {"title": "perihelion distance", "value": ".7276344625831185", "units": "au", "name": "q", "sigma": "6.4946E-8", "label": "q"}, {"label": "i", "name": "i", "sigma": "1.8142E-5", "title": "inclination; angle with respect to x-y ecliptic plane", "value": "29.45718764343085", "units": "deg"}, {"label": "node", "sigma": "9.6006E-6", "name": "om", "title": "longitude of the ascending node", "value": "78.32448571544236", "units": "deg"}, {"label": "peri", "name": "w", "sigma": "1.1762E-5", "title": "argument of perihelion", "value": "74.51753956384566", "units": "deg"}, {"name": "ma", "sigma": "8.7466E-6", "units": "deg", "title": "mean anomaly", "value": "114.3906746983466", "label": "M"}, {"title": "time of perihelion passage", "value": "2460883.944298526934", "units": "TDB", "sigma": "2.2473E-5", "name": "tp", "label": "tp"}, {"label": "period", "name": "per", "sigma": "6.8966E-6", "units": "d", "value": "996.2355133477571", "title": "sidereal orbital period"}, {"label": "n", "title": "mean motion", "value": ".3613603361621324", "units": "deg/d", "name": "n", "sigma": "2.5016E-9"}, {"label": "Q", "title": "aphelion distance", "value": "3.176628467104244", "units": "au", "sigma": "1.4661E-8", "name": "ad"}], "epoch": "2461200.5"}